[{"OBJECT_NAME":"GSAT0101 (GALILEO-PFM)","OBJECT_ID":"2011-060A","EPOCH":"2026-04-03T22:31:49.917216","MEAN_MOTION":1.70475877,"ECCENTRICITY":0.00041002,"INCLINATION":57.0172,"RA_OF_ASC_NODE":343.7769,"ARG_OF_PERICENTER":17.7484,"MEAN_ANOMALY":342.3127,"EPHEMERIS_TYPE":0,"CLASSIFICATION_TYPE":"U","NORAD_CAT_ID":37846,"ELEMENT_SET_NO":999,"REV_AT_EPOCH":8985,"BSTAR":0,"MEAN_MOTION_DOT":-9.5e-7,"MEAN_MOTION_DDOT":0},{"OBJECT_NAME":"GSAT0102 (GALILEO-FM2)","OBJECT_ID":"2011-060B","EPOCH":"2026-04-04T03:50:30.890400","MEAN_MOTION":1.70475892,"ECCENTRICITY":0.00048118,"INCLINATION":57.0179,"RA_OF_ASC_NODE":343.7712,"ARG_OF_PERICENTER":9.1881,"MEAN_ANOMALY":172.2383,"EPHEMERIS_TYPE":0,"CLASSIFICATION_TYPE":"U","NORAD_CAT_ID":37847,"ELEMENT_SET_NO":999,"REV_AT_EPOCH":8986,"BSTAR":0,"MEAN_MOTION_DOT":-9.5e-7,"MEAN_MOTION_DDOT":0},{"OBJECT_NAME":"GSAT0103 (GALILEO-FM3)","OBJECT_ID":"2012-055A","EPOCH":"2026-04-04T13:34:39.647424","MEAN_MOTION":1.70473519,"ECCENTRICITY":0.00059107,"INCLINATION":55.7599,"RA_OF_ASC_NODE":103.564,"ARG_OF_PERICENTER":291.5496,"MEAN_ANOMALY":68.4144,"EPHEMERIS_TYPE":0,"CLASSIFICATION_TYPE":"U","NORAD_CAT_ID":38857,"ELEMENT_SET_NO":999,"REV_AT_EPOCH":8375,"BSTAR":0,"MEAN_MOTION_DOT":3.0e-7,"MEAN_MOTION_DDOT":0},{"OBJECT_NAME":"GSAT0201 (GALILEO 5)","OBJECT_ID":"2014-050A","EPOCH":"2026-04-04T13:49:15.301920","MEAN_MOTION":1.85520165,"ECCENTRICITY":0.166276,"INCLINATION":48.9567,"RA_OF_ASC_NODE":276.4486,"ARG_OF_PERICENTER":176.5217,"MEAN_ANOMALY":184.7885,"EPHEMERIS_TYPE":0,"CLASSIFICATION_TYPE":"U","NORAD_CAT_ID":40128,"ELEMENT_SET_NO":999,"REV_AT_EPOCH":7695,"BSTAR":0,"MEAN_MOTION_DOT":-4.3e-7,"MEAN_MOTION_DDOT":0},{"OBJECT_NAME":"GSAT0202 (GALILEO 6)","OBJECT_ID":"2014-050B","EPOCH":"2026-04-01T14:20:46.883040","MEAN_MOTION":1.85520784,"ECCENTRICITY":0.16633026,"INCLINATION":48.9773,"RA_OF_ASC_NODE":275.655,"ARG_OF_PERICENTER":177.1412,"MEAN_ANOMALY":183.931,"EPHEMERIS_TYPE":0,"CLASSIFICATION_TYPE":"U","NORAD_CAT_ID":40129,"ELEMENT_SET_NO":999,"REV_AT_EPOCH":7906,"BSTAR":0,"MEAN_MOTION_DOT":-5.5e-7,"MEAN_MOTION_DDOT":0},{"OBJECT_NAME":"GSAT0203 (GALILEO 7)","OBJECT_ID":"2015-017A","EPOCH":"2026-04-04T07:16:46.263072","MEAN_MOTION":1.70475988,"ECCENTRICITY":0.0004485,"INCLINATION":56.8108,"RA_OF_ASC_NODE":343.6116,"ARG_OF_PERICENTER":297.4041,"MEAN_ANOMALY":62.597,"EPHEMERIS_TYPE":0,"CLASSIFICATION_TYPE":"U","NORAD_CAT_ID":40544,"ELEMENT_SET_NO":999,"REV_AT_EPOCH":6794,"BSTAR":0,"MEAN_MOTION_DOT":-9.5e-7,"MEAN_MOTION_DDOT":0},{"OBJECT_NAME":"GSAT0204 (GALILEO 8)","OBJECT_ID":"2015-017B","EPOCH":"2026-04-03T23:20:15.446400","MEAN_MOTION":1.70475693,"ECCENTRICITY":0.0003117,"INCLINATION":56.8167,"RA_OF_ASC_NODE":343.6389,"ARG_OF_PERICENTER":291.5044,"MEAN_ANOMALY":68.509,"EPHEMERIS_TYPE":0,"CLASSIFICATION_TYPE":"U","NORAD_CAT_ID":40545,"ELEMENT_SET_NO":999,"REV_AT_EPOCH":3098,"BSTAR":0,"MEAN_MOTION_DOT":-9.6e-7,"MEAN_MOTION_DDOT":0},{"OBJECT_NAME":"GSAT0205 (GALILEO 9)","OBJECT_ID":"2015-045A","EPOCH":"2026-04-02T22:25:38.377344","MEAN_MOTION":1.6741087,"ECCENTRICITY":0.0004084,"INCLINATION":54.9709,"RA_OF_ASC_NODE":223.7776,"ARG_OF_PERICENTER":270.5301,"MEAN_ANOMALY":89.369,"EPHEMERIS_TYPE":0,"CLASSIFICATION_TYPE":"U","NORAD_CAT_ID":40889,"ELEMENT_SET_NO":999,"REV_AT_EPOCH":6570,"BSTAR":0,"MEAN_MOTION_DOT":-1.6e-7,"MEAN_MOTION_DDOT":0},{"OBJECT_NAME":"GSAT0206 (GALILEO 10)","OBJECT_ID":"2015-045B","EPOCH":"2026-04-03T08:59:14.870688","MEAN_MOTION":1.7047395,"ECCENTRICITY":0.00028142,"INCLINATION":54.9697,"RA_OF_ASC_NODE":223.6683,"ARG_OF_PERICENTER":47.1384,"MEAN_ANOMALY":312.8358,"EPHEMERIS_TYPE":0,"CLASSIFICATION_TYPE":"U","NORAD_CAT_ID":40890,"ELEMENT_SET_NO":999,"REV_AT_EPOCH":6576,"BSTAR":0,"MEAN_MOTION_DOT":-1.3e-7,"MEAN_MOTION_DDOT":0},{"OBJECT_NAME":"GSAT0209 (GALILEO 12)","OBJECT_ID":"2015-079A","EPOCH":"2026-04-02T22:56:35.738880","MEAN_MOTION":1.70474345,"ECCENTRICITY":0.00055143,"INCLINATION":55.7797,"RA_OF_ASC_NODE":103.3236,"ARG_OF_PERICENTER":325.8217,"MEAN_ANOMALY":34.1781,"EPHEMERIS_TYPE":0,"CLASSIFICATION_TYPE":"U","NORAD_CAT_ID":41174,"ELEMENT_SET_NO":999,"REV_AT_EPOCH":6349,"BSTAR":0,"MEAN_MOTION_DOT":3.2e-7,"MEAN_MOTION_DDOT":0},{"OBJECT_NAME":"GSAT0208 (GALILEO 11)","OBJECT_ID":"2015-079B","EPOCH":"2026-04-03T04:13:44.855904","MEAN_MOTION":1.70474211,"ECCENTRICITY":0.00049738,"INCLINATION":55.7782,"RA_OF_ASC_NODE":103.3145,"ARG_OF_PERICENTER":327.5574,"MEAN_ANOMALY":32.446,"EPHEMERIS_TYPE":0,"CLASSIFICATION_TYPE":"U","NORAD_CAT_ID":41175,"ELEMENT_SET_NO":999,"REV_AT_EPOCH":6391,"BSTAR":0,"MEAN_MOTION_DOT":3.1e-7,"MEAN_MOTION_DDOT":0},{"OBJECT_NAME":"GSAT0211 (GALILEO 14)","OBJECT_ID":"2016-030A","EPOCH":"2026-04-04T11:21:42.401088","MEAN_MOTION":1.70474141,"ECCENTRICITY":0.00028673,"INCLINATION":55.1194,"RA_OF_ASC_NODE":223.7205,"ARG_OF_PERICENTER":14.1895,"MEAN_ANOMALY":345.7766,"EPHEMERIS_TYPE":0,"CLASSIFICATION_TYPE":"U","NORAD_CAT_ID":41549,"ELEMENT_SET_NO":999,"REV_AT_EPOCH":6141,"BSTAR":0,"MEAN_MOTION_DOT":-7.0e-8,"MEAN_MOTION_DDOT":0},{"OBJECT_NAME":"GSAT0210 (GALILEO 13)","OBJECT_ID":"2016-030B","EPOCH":"2026-04-04T03:27:29.627424","MEAN_MOTION":1.70474077,"ECCENTRICITY":0.00020513,"INCLINATION":55.1189,"RA_OF_ASC_NODE":223.7276,"ARG_OF_PERICENTER":215.3594,"MEAN_ANOMALY":144.5829,"EPHEMERIS_TYPE":0,"CLASSIFICATION_TYPE":"U","NORAD_CAT_ID":41550,"ELEMENT_SET_NO":999,"REV_AT_EPOCH":6140,"BSTAR":0,"MEAN_MOTION_DOT":-8.0e-8,"MEAN_MOTION_DDOT":0},{"OBJECT_NAME":"GSAT0207 (GALILEO 15)","OBJECT_ID":"2016-069A","EPOCH":"2026-04-03T05:58:52.924224","MEAN_MOTION":1.70474272,"ECCENTRICITY":0.00057815,"INCLINATION":55.4504,"RA_OF_ASC_NODE":103.1579,"ARG_OF_PERICENTER":313.2719,"MEAN_ANOMALY":46.7132,"EPHEMERIS_TYPE":0,"CLASSIFICATION_TYPE":"U","NORAD_CAT_ID":41859,"ELEMENT_SET_NO":999,"REV_AT_EPOCH":5812,"BSTAR":0,"MEAN_MOTION_DOT":3.0e-7,"MEAN_MOTION_DDOT":0},{"OBJECT_NAME":"GSAT0212 (GALILEO 16)","OBJECT_ID":"2016-069B","EPOCH":"2026-04-04T06:37:17.302944","MEAN_MOTION":1.70474499,"ECCENTRICITY":0.00043762,"INCLINATION":55.4482,"RA_OF_ASC_NODE":103.1246,"ARG_OF_PERICENTER":336.7977,"MEAN_ANOMALY":23.2102,"EPHEMERIS_TYPE":0,"CLASSIFICATION_TYPE":"U","NORAD_CAT_ID":41860,"ELEMENT_SET_NO":999,"REV_AT_EPOCH":5839,"BSTAR":0,"MEAN_MOTION_DOT":2.9e-7,"MEAN_MOTION_DDOT":0},{"OBJECT_NAME":"GSAT0213 (GALILEO 17)","OBJECT_ID":"2016-069C","EPOCH":"2026-03-29T04:34:53.766048","MEAN_MOTION":1.70475393,"ECCENTRICITY":0.00056724,"INCLINATION":55.4467,"RA_OF_ASC_NODE":103.3008,"ARG_OF_PERICENTER":296.7743,"MEAN_ANOMALY":63.2211,"EPHEMERIS_TYPE":0,"CLASSIFICATION_TYPE":"U","NORAD_CAT_ID":41861,"ELEMENT_SET_NO":999,"REV_AT_EPOCH":5815,"BSTAR":0,"MEAN_MOTION_DOT":4.2e-7,"MEAN_MOTION_DDOT":0},{"OBJECT_NAME":"GSAT0214 (GALILEO 18)","OBJECT_ID":"2016-069D","EPOCH":"2026-04-03T14:47:20.680512","MEAN_MOTION":1.70474615,"ECCENTRICITY":0.00048192,"INCLINATION":55.4486,"RA_OF_ASC_NODE":103.1435,"ARG_OF_PERICENTER":302.4917,"MEAN_ANOMALY":57.4928,"EPHEMERIS_TYPE":0,"CLASSIFICATION_TYPE":"U","NORAD_CAT_ID":41862,"ELEMENT_SET_NO":999,"REV_AT_EPOCH":5837,"BSTAR":0,"MEAN_MOTION_DOT":2.9e-7,"MEAN_MOTION_DDOT":0}]
